STARLINK-32410          
1 61887U 24204P   26068.39800075 -.00002646  00000+0 -77260-4 0  9991
2 61887  53.1600 128.3831 0001131  68.5581 291.5540 15.30199223 75050
NUSHSAT1                
1 63211U 25052B   26068.64700493  .00023034  00000+0  74857-3 0  9997
2 63211  97.4095 325.7239 0005501  84.7512 275.4357 15.31903202 54882
